$$SOE
2459580.500000000, A.D. 2022-Jan-01 00:00:00.0000, -1.633038351157694E+08, -4.088482160905920E+08, 2.367870875876126E+07,
2459587.500000000, A.D. 2022-Jan-08 00:00:00.0000, -1.543913747051172E+08, -4.119440807833459E+08, 2.111036368136045E+07,
2459594.500000000, A.D. 2022-Jan-15 00:00:00.0000, -1.453912073560397E+08, -4.148058613930693E+08, 1.853002357628521E+07,
2459601.500000000, A.D. 2022-Jan-22 00:00:00.0000, -1.363081643131803E+08, -4.174311385555158E+08, 1.593911892220536E+07,
2459608.500000000, A.D. 2022-Jan-29 00:00:00.0000, -1.271471392242483E+08, -4.198175569438503E+08, 1.333909402450964E+07,
2459615.500000000, A.D. 2022-Feb-05 00:00:00.0000, -1.179130916645270E+08, -4.219628271438908E+08, 1.073140745881194E+07,
2459622.500000000, A.D. 2022-Feb-12 00:00:00.0000, -1.086110485092764E+08, -4.238647287343770E+08, 8.117532228446633E+06,
2459629.500000000, A.D. 2022-Feb-19 00:00:00.0000, -9.924610447534306E+07, -4.255211122087057E+08, 5.498955949834436E+06,
2459636.500000000, A.D. 2022-Feb-26 00:00:00.0000, -8.982342313957493E+07, -4.269299004656906E+08, 2.877181125456542E+06,
2459643.500000000, A.D. 2022-Mar-05 00:00:00.0000, -8.034823827043682E+07, -4.280890904904870E+08, 2.537254377294481E+05,
2459650.500000000, A.D. 2022-Mar-12 00:00:00.0000, -7.082585524605846E+07, -4.289967552956358E+08, -2.369877963802397E+06,
2459657.500000000, A.D. 2022-Mar-19 00:00:00.0000, -6.126165248199864E+07, -4.296510460988711E+08, -4.992080188202083E+06,
2459664.500000000, A.D. 2022-Mar-26 00:00:00.0000, -5.166108284034916E+07, -4.300501947492721E+08, -7.611316346451104E+06,
2459671.500000000, A.D. 2022-Apr-02 00:00:00.0000, -4.202967494678231E+07, -4.301925164639322E+08, -1.022600532528290E+07,
2459678.500000000, A.D. 2022-Apr-09 00:00:00.0000, -3.237303413844391E+07, -4.300764128762869E+08, -1.283454961832646E+07,
2459685.500000000, A.D. 2022-Apr-16 00:00:00.0000, -2.269684268055398E+07, -4.297003747466453E+08, -1.543533519614989E+07,
2459692.500000000, A.D. 2022-Apr-23 00:00:00.0000, -1.300686051465666E+07, -4.290629832532257E+08, -1.802673121248093E+07,
2459699.500000000, A.D. 2022-Apr-30 00:00:00.0000, -3.308928400266089E+06, -4.281629121098699E+08, -2.060708956083509E+07,
2459706.500000000, A.D. 2022-May-07 00:00:00.0000, 6.391029624285911E+06, -4.269989324867345E+08, -2.317474472622487E+07,
2459713.500000000, A.D. 2022-May-14 00:00:00.0000, 1.608700586339355E+07, -4.255699177028855E+08, -2.572801381387427E+07,
2459720.500000000, A.D. 2022-May-21 00:00:00.0000, 2.577290864800522E+07, -4.238748469412088E+08, -2.826519650972435E+07,
2459727.500000000, A.D. 2022-May-28 00:00:00.0000, 3.544256161280558E+07, -4.219128089530477E+08, -3.078457501055294E+07,
2459734.500000000, A.D. 2022-Jun-04 00:00:00.0000, 4.508970285341484E+07, -4.196830060724912E+08, -3.328441397828162E+07,
2459741.500000000, A.D. 2022-Jun-11 00:00:00.0000, 5.470798411840726E+07, -4.171847585432438E+08, -3.576296053524584E+07,
2459748.500000000, A.D. 2022-Jun-18 00:00:00.0000, 6.429097008639179E+07, -4.144175091482182E+08, -3.821844430665392E+07,
2459755.500000000, A.D. 2022-Jun-25 00:00:00.0000, 7.383213777097748E+07, -4.113808281777683E+08, -4.064907751951566E+07,
2459762.500000000, A.D. 2022-Jul-02 00:00:00.0000, 8.332487620250165E+07, -4.080744188053060E+08, -4.305305517969665E+07,
2459769.500000000, A.D. 2022-Jul-09 00:00:00.0000, 9.276248679251912E+07, -4.044981226964958E+08, -4.542855535251328E+07,
2459776.500000000, A.D. 2022-Jul-16 00:00:00.0000, 1.021381843424574E+08, -4.006519247719145E+08, -4.777373945748669E+07,
2459783.500000000, A.D. 2022-Jul-23 00:00:00.0000, 1.114450965157405E+08, -3.965359570467991E+08, -5.008675237352574E+07,
2459790.500000000, A.D. 2022-Jul-30 00:00:00.0000, 1.206762618771451E+08, -3.921505049016120E+08, -5.236572264086244E+07,
2459797.500000000, A.D. 2022-Aug-06 00:00:00.0000, 1.298246301202575E+08, -3.874960151360362E+08, -5.460876304207894E+07,
2459804.500000000, A.D. 2022-Aug-13 00:00:00.0000, 1.388830636826819E+08, -3.825731030543156E+08, -5.681397126753265E+07,
2459811.500000000, A.D. 2022-Aug-20 00:00:00.0000, 1.478443392023927E+08, -3.773825590866954E+08, -5.897943056862737E+07,
2459818.500000000, A.D. 2022-Aug-27 00:00:00.0000, 1.567011489067010E+08, -3.719253556728332E+08, -6.110321047103140E+07,
2459825.500000000, A.D. 2022-Sep-03 00:00:00.0000, 1.654461022060618E+08, -3.662026545151363E+08, -6.318336758629018E+07,
2459832.500000000, A.D. 2022-Sep-10 00:00:00.0000, 1.740717276080755E+08, -3.602158141734586E+08, -6.521794653495289E+07,
2459839.500000000, A.D. 2022-Sep-17 00:00:00.0000, 1.825704750074857E+08, -3.539663979956549E+08, -6.720498099094465E+07,
2459846.500000000, A.D. 2022-Sep-24 00:00:00.0000, 1.909347184408896E+08, -3.474561824250399E+08, -6.914249486395213E+07,
2459853.500000000, A.D. 2022-Oct-01 00:00:00.0000, 1.991567595768355E+08, -3.406871656957527E+08, -7.102850365122886E+07,
2459860.500000000, A.D. 2022-Oct-08 00:00:00.0000, 2.072288323808052E+08, -3.336615763821475E+08, -7.286101596171828E+07,
2459867.500000000, A.D. 2022-Oct-15 00:00:00.0000, 2.151431080553879E+08, -3.263818805895946E+08, -7.463803503750695E+07,
2459874.500000000, A.D. 2022-Oct-22 00:00:00.0000, 2.228916981055548E+08, -3.188507894526923E+08, -7.635756021823181E+07,
2459881.500000000, A.D. 2022-Oct-29 00:00:00.0000, 2.304666580594317E+08, -3.110712695109985E+08, -7.801758879725063E+07,
2459888.500000000, A.D. 2022-Nov-05 00:00:00.0000, 2.378599939791485E+08, -3.030465531954508E+08, -7.961611824632245E+07,
2459895.500000000, A.D. 2022-Nov-12 00:00:00.0000, 2.450636698330919E+08, -2.947801481310000E+08, -8.115114853358860E+07,
2459902.500000000, A.D. 2022-Nov-19 00:00:00.0000, 2.520696150459931E+08, -2.862758461785440E+08, -8.262068455523510E+07,
2459909.500000000, A.D. 2022-Nov-26 00:00:00.0000, 2.588697325248408E+08, -2.775377325780466E+08, -8.402273874550782E+07,
2459916.500000000, A.D. 2022-Dec-03 00:00:00.0000, 2.654559073623804E+08, -2.685701951647990E+08, -8.535533388923843E+07,
2459923.500000000, A.D. 2022-Dec-10 00:00:00.0000, 2.718200162987205E+08, -2.593779335965377E+08, -8.661650614726222E+07,
2459930.500000000, A.D. 2022-Dec-17 00:00:00.0000, 2.779539379987794E+08, -2.499659685683160E+08, -8.780430830611832E+07,
2459937.500000000, A.D. 2022-Dec-24 00:00:00.0000, 2.838495642851009E+08, -2.403396510270651E+08, -8.891681327324469E+07,
2459944.500000000, A.D. 2022-Dec-31 00:00:00.0000, 2.894988127116791E+08, -2.305046712180208E+08, -8.995211784604616E+07,
2459951.500000000, A.D. 2023-Jan-07 00:00:00.0000, 2.948936406280205E+08, -2.204670665352997E+08, -9.090834669074880E+07,
2459958.500000000, A.D. 2023-Jan-14 00:00:00.0000, 3.000260587894881E+08, -2.102332276095640E+08, -9.178365631191628E+07,
2459965.500000000, A.D. 2023-Jan-21 00:00:00.0000, 3.048881438874052E+08, -1.998099057267821E+08, -9.257623921256134E+07,
2459972.500000000, A.D. 2023-Jan-28 00:00:00.0000, 3.094720536835105E+08, -1.892042216869507E+08, -9.328432859637207E+07,
2459979.500000000, A.D. 2023-Feb-04 00:00:00.0000, 3.137700445561567E+08, -1.784236729865634E+08, -9.390620334556219E+07,
2459986.500000000, A.D. 2023-Feb-11 00:00:00.0000, 3.177744896728551E+08, -1.674761394290428E+08, -9.444019312485608E+07,
2459993.500000000, A.D. 2023-Feb-18 00:00:00.0000, 3.214778977260569E+08, -1.563698878925105E+08, -9.488468366947637E+07,
2460000.500000000, A.D. 2023-Feb-25 00:00:00.0000, 3.248729324855361E+08, -1.451135763166840E+08, -9.523812228730686E+07,
2460007.500000000, A.D. 2023-Mar-04 00:00:00.0000, 3.279524332512561E+08, -1.337162567843042E+08, -9.549902357270145E+07,
2460014.500000000, A.D. 2023-Mar-11 00:00:00.0000, 3.307094362080497E+08, -1.221873775864485E+08, -9.566597532131153E+07,
2460021.500000000, A.D. 2023-Mar-18 00:00:00.0000, 3.331371966916234E+08, -1.105367842083403E+08, -9.573764463816398E+07,
2460028.500000000, A.D. 2023-Mar-25 00:00:00.0000, 3.352292125190380E+08, -9.877471916776489E+07, -9.571278424163824E+07,
2460035.500000000, A.D. 2023-Apr-01 00:00:00.0000, 3.369792487453634E+08, -8.691182019418046E+07, -9.559023894625480E+07,
2460042.500000000, A.D. 2023-Apr-08 00:00:00.0000, 3.383813631601292E+08, -7.495911540427862E+07, -9.536895214207293E+07,
2460049.500000000, A.D. 2023-Apr-15 00:00:00.0000, 3.394299301054161E+08, -6.292801646736880E+07, -9.504797211978260E+07,
2460056.500000000, A.D. 2023-Apr-22 00:00:00.0000, 3.401196643237187E+08, -5.083031270449770E+07, -9.462645862431809E+07,
2460063.500000000, A.D. 2023-Apr-29 00:00:00.0000, 3.404456474519392E+08, -3.867816376076997E+07, -9.410368966565587E+07,
2460070.500000000, A.D. 2023-May-06 00:00:00.0000, 3.404033552713591E+08, -2.648408896769521E+07, -9.347906823928536E+07,
2460077.500000000, A.D. 2023-May-13 00:00:00.0000, 3.399886845936602E+08, -1.426095419702540E+07, -9.275212889662124E+07,
2460084.500000000, A.D. 2023-May-20 00:00:00.0000, 3.391979798588682E+08, -2.021956616045259E+06, -9.192254418032496E+07,
2460091.500000000, A.D. 2023-May-27 00:00:00.0000, 3.380280594658685E+08, 1.021939269489853E+07, -9.099013089472234E+07,
2460098.500000000, A.D. 2023-Jun-03 00:00:00.0000, 3.364762417068255E+08, 2.244928834267255E+07, -8.995485616161868E+07,
2460105.500000000, A.D. 2023-Jun-10 00:00:00.0000, 3.345403701310254E+08, 3.465365246287878E+07, -8.881684320960855E+07,
2460112.500000000, A.D. 2023-Jun-17 00:00:00.0000, 3.322188382185287E+08, 4.681815876014257E+07, -8.757637685299298E+07,
2460119.500000000, A.D. 2023-Jun-24 00:00:00.0000, 3.295106134647272E+08, 5.892825879745723E+07, -8.623390862627140E+07,
2460126.500000000, A.D. 2023-Jul-01 00:00:00.0000, 3.264152608982232E+08, 7.096921133444832E+07, -8.479006146795870E+07,
2460133.500000000, A.D. 2023-Jul-08 00:00:00.0000, 3.229329641237677E+08, 8.292611548958914E+07, -8.324563367147006E+07,
2460140.500000000, A.D. 2023-Jul-15 00:00:00.0000, 3.190645423872973E+08, 9.478394482207125E+07, -8.160160216085126E+07,
$$EOE